HAWK-8B                 
1 59445U 24066D   26068.47430810  .00002353  00000+0  21133-3 0  9999
2 59445  45.6192  73.7012 0004280 258.0487 101.9914 14.98769819104860
STARLINK-34079          
1 64038U 25102S   26068.54079021  .00004470  00000+0  38217-3 0  9999
2 64038  70.0012 114.6772 0003370 271.9361  88.1413 14.98331290 46031
